start=new Date('2022-08-25T00:00:00.000Z').valueOf();
sats=[{"RA_OF_ASC_NODE":"32.6037","MEAN_ANOMALY":"291.1199","ARG_OF_PERICENTER":"55.4874","SITE":"AFWTR","GP_ID":"210935170","ECCENTRICITY":"0.00017200","OBJECT_ID":"2022-017X","PERIOD":"95.439","TLE_LINE2":"2 51789  53.2170  32.6037 0001720  55.4874 291.1199 15.08822980  1303","CENTER_NAME":"EARTH","DECAY_DATE":null,"MEAN_MOTION":"15.08822980","MEAN_MOTION_DOT":"0.00037386","LAUNCH_DATE":"2022-02-25","MEAN_ELEMENT_THEORY":"SGP4","CLASSIFICATION_TYPE":"U","FILE":"3546663","ELEMENT_SET_NO":"999","INCLINATION":"53.2170","EPOCH":"2022-08-24T22:00:00.999936","PERIAPSIS":"538.608","RCS_SIZE":"LARGE","NORAD_CAT_ID":"51789","SEMIMAJOR_AXIS":"6917.932","TLE_LINE1":"1 51789U 22017X   22236.91667824  .00037386  00000-0  23558-2 0  9992","TIME_SYSTEM":"UTC","REF_FRAME":"TEME","COUNTRY_CODE":"US","APOAPSIS":"540.987","MEAN_MOTION_DDOT":"0.0000000000000","OBJECT_TYPE":"PAYLOAD","EPHEMERIS_TYPE":"0","OBJECT_NAME":"STARLINK-3639","REV_AT_EPOCH":"130","BSTAR":"0.00235580000000"},{"CLASSIFICATION_TYPE":"U","FILE":"3546663","LAUNCH_DATE":"2022-02-25","MEAN_ELEMENT_THEORY":"SGP4","MEAN_MOTION":"15.08820577","MEAN_MOTION_DOT":"0.00039323","CENTER_NAME":"EARTH","DECAY_DATE":null,"PERIOD":"95.439","TLE_LINE2":"2 51790  53.2163  32.6151 0001554  57.5804  29.0425 15.08820577  1305","OBJECT_ID":"2022-017Y","SITE":"AFWTR","ECCENTRICITY":"0.00015540","GP_ID":"210935422","ARG_OF_PERICENTER":"57.5804","RA_OF_ASC_NODE":"32.6151","MEAN_ANOMALY":"29.0425","BSTAR":"0.00247640000000","OBJECT_NAME":"STARLINK-3631","REV_AT_EPOCH":"130","OBJECT_TYPE":"PAYLOAD","EPHEMERIS_TYPE":"0","APOAPSIS":"540.880","MEAN_MOTION_DDOT":"0.0000000000000","COUNTRY_CODE":"US","REF_FRAME":"TEME","TIME_SYSTEM":"UTC","SEMIMAJOR_AXIS":"6917.940","TLE_LINE1":"1 51790U 22017Y   22236.91667824  .00039323  00000-0  24764-2 0  9997","NORAD_CAT_ID":"51790","RCS_SIZE":"MEDIUM","EPOCH":"2022-08-24T22:00:00.999936","PERIAPSIS":"538.730","INCLINATION":"53.2163","ELEMENT_SET_NO":"999"},{"REF_FRAME":"TEME","COUNTRY_CODE":"US","APOAPSIS":"541.042","MEAN_MOTION_DDOT":"0.0000000000000","EPHEMERIS_TYPE":"0","OBJECT_TYPE":"PAYLOAD","OBJECT_NAME":"STARLINK-3602","REV_AT_EPOCH":"130","BSTAR":"0.00251420000000","ELEMENT_SET_NO":"999","INCLINATION":"53.2172","PERIAPSIS":"538.559","EPOCH":"2022-08-24T22:00:00.999936","RCS_SIZE":"LARGE","NORAD_CAT_ID":"51791","TLE_LINE1":"1 51791U 22017Z   22236.91667824  .00039933  00000-0  25142-2 0  9996","SEMIMAJOR_AXIS":"6917.935","TIME_SYSTEM":"UTC","DECAY_DATE":null,"CENTER_NAME":"EARTH","MEAN_MOTION_DOT":"0.00039933","MEAN_MOTION":"15.08822038","MEAN_ELEMENT_THEORY":"SGP4","LAUNCH_DATE":"2022-02-25","FILE":"3546663","CLASSIFICATION_TYPE":"U","MEAN_ANOMALY":"332.5573","RA_OF_ASC_NODE":"32.5985","ARG_OF_PERICENTER":"54.0528","ECCENTRICITY":"0.00017950","GP_ID":"210936172","SITE":"AFWTR","OBJECT_ID":"2022-017Z","TLE_LINE2":"2 51791  53.2172  32.5985 0001795  54.0528 332.5573 15.08822038  1302","PERIOD":"95.439"},{"MEAN_ELEMENT_THEORY":"SGP4","LAUNCH_DATE":"2022-02-25","CENTER_NAME":"EARTH","DECAY_DATE":null,"MEAN_MOTION":"15.08830556","MEAN_MOTION_DOT":"0.00039733","CLASSIFICATION_TYPE":"U","FILE":"3546663","ARG_OF_PERICENTER":"56.6575","SITE":"AFWTR","GP_ID":"210934420","ECCENTRICITY":"0.00014810","MEAN_ANOMALY":"69.9531","RA_OF_ASC_NODE":"32.6171","OBJECT_ID":"2022-017AA","PERIOD":"95.438","TLE_LINE2":"2 51792  53.2173  32.6171 0001481  56.6575  69.9531 15.08830556  1303","COUNTRY_CODE":"US","APOAPSIS":"540.799","MEAN_MOTION_DDOT":"0.0000000000000","REF_FRAME":"TEME","REV_AT_EPOCH":"130","OBJECT_NAME":"STARLINK-3626","BSTAR":"0.00250120000000","OBJECT_TYPE":"PAYLOAD","EPHEMERIS_TYPE":"0","EPOCH":"2022-08-24T22:00:00.999936","PERIAPSIS":"538.750","RCS_SIZE":"LARGE","ELEMENT_SET_NO":"999","INCLINATION":"53.2173","TIME_SYSTEM":"UTC","NORAD_CAT_ID":"51792","SEMIMAJOR_AXIS":"6917.909","TLE_LINE1":"1 51792U 22017AA  22236.91667824  .00039733  00000-0  25012-2 0  9991"},{"LAUNCH_DATE":"2022-02-25","MEAN_ELEMENT_THEORY":"SGP4","MEAN_MOTION_DOT":"0.00039137","MEAN_MOTION":"15.08821041","DECAY_DATE":null,"CENTER_NAME":"EARTH","FILE":"3546663","CLASSIFICATION_TYPE":"U","ECCENTRICITY":"0.00017520","GP_ID":"210934671","SITE":"AFWTR","ARG_OF_PERICENTER":"58.9103","RA_OF_ASC_NODE":"32.6056","MEAN_ANOMALY":"347.6991","TLE_LINE2":"2 51793  53.2180  32.6056 0001752  58.9103 347.6991 15.08821041  1302","PERIOD":"95.439","OBJECT_ID":"2022-017AB","APOAPSIS":"541.015","MEAN_MOTION_DDOT":"0.0000000000000","COUNTRY_CODE":"US","REF_FRAME":"TEME","BSTAR":"0.00246480000000","REV_AT_EPOCH":"130","OBJECT_NAME":"STARLINK-3633","EPHEMERIS_TYPE":"0","OBJECT_TYPE":"PAYLOAD","RCS_SIZE":"LARGE","PERIAPSIS":"538.591","EPOCH":"2022-08-24T22:00:00.999936","INCLINATION":"53.2180","ELEMENT_SET_NO":"999","TIME_SYSTEM":"UTC","TLE_LINE1":"1 51793U 22017AB  22236.91667824  .00039137  00000-0  24648-2 0  9994","SEMIMAJOR_AXIS":"6917.938","NORAD_CAT_ID":"51793"},{"COUNTRY_CODE":"US","APOAPSIS":"540.855","MEAN_MOTION_DDOT":"0.0000000000000","REF_FRAME":"TEME","OBJECT_NAME":"STARLINK-3573","REV_AT_EPOCH":"2875","BSTAR":"0.00250400000000","EPHEMERIS_TYPE":"0","OBJECT_TYPE":"PAYLOAD","PERIAPSIS":"538.798","EPOCH":"2022-08-24T22:00:00.999936","RCS_SIZE":"LARGE","ELEMENT_SET_NO":"999","INCLINATION":"53.2168","TIME_SYSTEM":"UTC","NORAD_CAT_ID":"51794","TLE_LINE1":"1 51794U 22017AC  22236.91667824  .00039759  00000-0  25040-2 0  9992","SEMIMAJOR_AXIS":"6917.962","LAUNCH_DATE":"2022-02-25","MEAN_ELEMENT_THEORY":"SGP4","DECAY_DATE":null,"CENTER_NAME":"EARTH","MEAN_MOTION_DOT":"0.00039759","MEAN_MOTION":"15.08813377","FILE":"3546406","CLASSIFICATION_TYPE":"U","ARG_OF_PERICENTER":"66.1409","GP_ID":"210905725","ECCENTRICITY":"0.00014870","SITE":"AFWTR","MEAN_ANOMALY":"100.4344","RA_OF_ASC_NODE":"32.6186","OBJECT_ID":"2022-017AC","TLE_LINE2":"2 51794  53.2168  32.6186 0001487  66.1409 100.4344 15.08813377 28756","PERIOD":"95.439"},{"RA_OF_ASC_NODE":"32.6196","MEAN_ANOMALY":"80.1935","GP_ID":"210935673","ECCENTRICITY":"0.00016690","SITE":"AFWTR","ARG_OF_PERICENTER":"66.4264","TLE_LINE2":"2 51795  53.2165  32.6196 0001669  66.4264  80.1935 15.08821548  1300","PERIOD":"95.439","OBJECT_ID":"2022-017AD","MEAN_MOTION_DOT":"0.00039881","MEAN_MOTION":"15.08821548","DECAY_DATE":null,"CENTER_NAME":"EARTH","LAUNCH_DATE":"2022-02-25","MEAN_ELEMENT_THEORY":"SGP4","FILE":"3546663","CLASSIFICATION_TYPE":"U","INCLINATION":"53.2165","ELEMENT_SET_NO":"999","RCS_SIZE":"LARGE","PERIAPSIS":"538.647","EPOCH":"2022-08-24T22:00:00.999936","TLE_LINE1":"1 51795U 22017AD  22236.91667824  .00039881  00000-0  25110-2 0  9997","SEMIMAJOR_AXIS":"6917.937","NORAD_CAT_ID":"51795","TIME_SYSTEM":"UTC","REF_FRAME":"TEME","APOAPSIS":"540.956","MEAN_MOTION_DDOT":"0.0000000000000","COUNTRY_CODE":"US","EPHEMERIS_TYPE":"0","OBJECT_TYPE":"PAYLOAD","BSTAR":"0.00251100000000","OBJECT_NAME":"STARLINK-3586","REV_AT_EPOCH":"130"},{"OBJECT_TYPE":"PAYLOAD","EPHEMERIS_TYPE":"0","BSTAR":"0.00236620000000","REV_AT_EPOCH":"130","OBJECT_NAME":"STARLINK-3630","REF_FRAME":"TEME","APOAPSIS":"540.870","MEAN_MOTION_DDOT":"0.0000000000000","COUNTRY_CODE":"US","SEMIMAJOR_AXIS":"6917.946","TLE_LINE1":"1 51796U 22017AE  22236.91667824  .00037549  00000-0  23662-2 0  9997","NORAD_CAT_ID":"51796","TIME_SYSTEM":"UTC","INCLINATION":"53.2165","ELEMENT_SET_NO":"999","RCS_SIZE":"LARGE","EPOCH":"2022-08-24T22:00:00.999936","PERIAPSIS":"538.753","CLASSIFICATION_TYPE":"U","FILE":"3546663","MEAN_MOTION":"15.08818400","MEAN_MOTION_DOT":"0.00037549","CENTER_NAME":"EARTH","DECAY_DATE":null,"MEAN_ELEMENT_THEORY":"SGP4","LAUNCH_DATE":"2022-02-25","PERIOD":"95.439","TLE_LINE2":"2 51796  53.2165  32.6027 0001530  52.0919 174.3970 15.08818400  1307","OBJECT_ID":"2022-017AE","RA_OF_ASC_NODE":"32.6027","MEAN_ANOMALY":"174.3970","SITE":"AFWTR","GP_ID":"210934920","ECCENTRICITY":"0.00015300","ARG_OF_PERICENTER":"52.0919"},{"CLASSIFICATION_TYPE":"U","FILE":"3546663","CENTER_NAME":"EARTH","DECAY_DATE":null,"MEAN_MOTION":"15.08818485","MEAN_MOTION_DOT":"0.00040140","LAUNCH_DATE":"2022-02-25","MEAN_ELEMENT_THEORY":"SGP4","OBJECT_ID":"2022-017AF","PERIOD":"95.439","TLE_LINE2":"2 51797  53.2171  32.6193 0001602  50.6334  55.9862 15.08818485  1301","RA_OF_ASC_NODE":"32.6193","MEAN_ANOMALY":"55.9862","ARG_OF_PERICENTER":"50.6334","SITE":"AFWTR","ECCENTRICITY":"0.00016020","GP_ID":"210935171","OBJECT_TYPE":"PAYLOAD","EPHEMERIS_TYPE":"0","REV_AT_EPOCH":"130","OBJECT_NAME":"STARLINK-3627","BSTAR":"0.00252730000000","REF_FRAME":"TEME","COUNTRY_CODE":"US","APOAPSIS":"540.919","MEAN_MOTION_DDOT":"0.0000000000000","NORAD_CAT_ID":"51797","SEMIMAJOR_AXIS":"6917.946","TLE_LINE1":"1 51797U 22017AF  22236.91667824  .00040140  00000-0  25273-2 0  9999","TIME_SYSTEM":"UTC","ELEMENT_SET_NO":"999","INCLINATION":"53.2171","EPOCH":"2022-08-24T22:00:00.999936","PERIAPSIS":"538.703","RCS_SIZE":"LARGE"},{"MEAN_ANOMALY":"190.7931","RA_OF_ASC_NODE":"32.5971","SITE":"AFWTR","ECCENTRICITY":"0.00017080","GP_ID":"210935423","ARG_OF_PERICENTER":"55.8052","PERIOD":"95.439","TLE_LINE2":"2 51798  53.2163  32.5971 0001708  55.8052 190.7931 15.08822382  1303","OBJECT_ID":"2022-017AG","MEAN_MOTION":"15.08822382","MEAN_MOTION_DOT":"0.00035248","CENTER_NAME":"EARTH","DECAY_DATE":null,"LAUNCH_DATE":"2022-02-25","MEAN_ELEMENT_THEORY":"SGP4","CLASSIFICATION_TYPE":"U","FILE":"3546663","INCLINATION":"53.2163","ELEMENT_SET_NO":"999","RCS_SIZE":"LARGE","EPOCH":"2022-08-24T22:00:00.999936","PERIAPSIS":"538.618","SEMIMAJOR_AXIS":"6917.934","TLE_LINE1":"1 51798U 22017AG  22236.91667824  .00035248  00000-0  22228-2 0  9990","NORAD_CAT_ID":"51798","TIME_SYSTEM":"UTC","REF_FRAME":"TEME","APOAPSIS":"540.981","MEAN_MOTION_DDOT":"0.0000000000000","COUNTRY_CODE":"US","OBJECT_TYPE":"PAYLOAD","EPHEMERIS_TYPE":"0","BSTAR":"0.00222280000000","REV_AT_EPOCH":"130","OBJECT_NAME":"STARLINK-3634"}];
